[{"OBJECT_NAME":"STARLINK-3522","OBJECT_ID":"2022-016M","EPOCH":"2026-03-09T21:59:17.419776","MEAN_MOTION":15.08840993,"ECCENTRICITY":0.0001768,"INCLINATION":53.2203,"RA_OF_ASC_NODE":328.0947,"ARG_OF_PERICENTER":62.0569,"MEAN_ANOMALY":298.0602,"EPHEMERIS_TYPE":0,"CLASSIFICATION_TYPE":"U","NORAD_CAT_ID":51725,"ELEMENT_SET_NO":999,"REV_AT_EPOCH":22345,"BSTAR":-0.0001153914,"MEAN_MOTION_DOT":-2.124e-5,"MEAN_MOTION_DDOT":0},{"OBJECT_NAME":"FENGYUN 1C DEB","OBJECT_ID":"1999-025BNW","EPOCH":"2026-03-06T10:01:07.743936","MEAN_MOTION":15.11996262,"ECCENTRICITY":0.00143439,"INCLINATION":98.7438,"RA_OF_ASC_NODE":239.2093,"ARG_OF_PERICENTER":346.0612,"MEAN_ANOMALY":44.2284,"EPHEMERIS_TYPE":0,"CLASSIFICATION_TYPE":"U","NORAD_CAT_ID":31288,"ELEMENT_SET_NO":999,"REV_AT_EPOCH":98814,"BSTAR":0.0072973407,"MEAN_MOTION_DOT":0.00127645,"MEAN_MOTION_DDOT":0}]
